{
  "norad_id": 53870,
  "name": "STARLINK-4732",
  "history": [
    {
      "epoch": "2026-03-28T15:17:00.252672",
      "apogee_km": 540.5562220178017,
      "perigee_km": 539.0038414358824,
      "latitude_deg": 42.446873514065864,
      "longitude_deg": -11.866385919973254,
      "semi_major_axis_km": 6917.917031726842,
      "eccentricity": 0.0001122,
      "inclination_deg": 53.2171,
      "raan_deg": 178.998,
      "arg_perigee_deg": 95.2301,
      "mean_anomaly_deg": 264.8819,
      "mean_motion_rev_day": 15.08828012
    },
    {
      "epoch": "2026-03-28T23:13:55.968096",
      "apogee_km": 540.5514671841702,
      "perigee_km": 538.9963208151994,
      "latitude_deg": 50.232371958348715,
      "longitude_deg": 19.928853440098464,
      "semi_major_axis_km": 6917.910893999685,
      "eccentricity": 0.0001124,
      "inclination_deg": 53.2173,
      "raan_deg": 177.5113,
      "arg_perigee_deg": 91.2448,
      "mean_anomaly_deg": 268.8673,
      "mean_motion_rev_day": 15.0883002
    }
  ]
}